ORBCOMM FM115           
1 41186U 15081H   24326.45614839  .00001827  00000+0  39794-3 0  9994
2 41186  46.9994 306.9782 0000612 249.9395 110.1426 14.61678129477376
ORBCOMM FM108           
1 41187U 15081J   24326.44369444  .00002197  00000+0  51551-3 0  9999
2 41187  47.0054   7.5812 0001557  36.2966 323.8025 14.57489514476565
ORBCOMM FM117           
1 41188U 15081K   24326.54753105  .00002335  00000+0  54613-3 0  9998
2 41188  47.0017   5.9285 0001753  64.1786 295.9280 14.57455894476598
ORBCOMM FM116           
1 41189U 15081L   24326.67399249  .00001419  00000+0  34645-3 0  9993
2 41189  47.0018  95.1663 0002533 196.1089 163.9716 14.57433603475377
